INTELSAT 10 (IS-10)     
1 26766U 01019A   26061.82822588 -.00000297  00000+0  00000+0 0  9993
2 26766   8.8221  60.3368 0006023 264.4557 284.1492  0.99042112 44523
INTELSAT 902 (IS-902)   
1 26900U 01039A   26061.36430605 -.00000298  00000+0  00000+0 0  9990
2 26900   5.8472  73.0874 0004617 272.3578 255.7488  1.00270997 89625
INTELSAT 904 (IS-904)   
1 27380U 02007A   26061.46017110 -.00000240  00000+0  00000+0 0  9999
2 27380   6.6541  70.4635 0006068 306.2018 277.7210  1.00270508 50698
DIRECTV 5 (TEMPO 1)     
1 27426U 02023A   26061.63760625 -.00000072  00000+0  00000+0 0  9996
2 27426   4.6059  76.6427 0003576 270.0845 293.1139  1.00271942 87050
INTELSAT 905 (IS-905)   
1 27438U 02027A   26061.70350780  .00000080  00000+0  00000+0 0  9996
2 27438   6.4864  71.0813 0003146 272.7230 292.7304  1.00272695 50296
GALAXY 3C (G-3C)        
1 27445U 02030A   26061.64063959 -.00000168  00000+0  00000+0 0  9998
2 27445   3.4600  79.4840 0000918  32.4705 184.2481  1.00271516 45424
INTELSAT 906 (IS-906)   
1 27513U 02041A   26061.68644560 -.00000001  00000+0  00000+0 0  9999
2 27513   5.5318  74.2340 0003261 255.1945 142.2999  1.00272582 85966
GALAXY 13 (HORIZONS-1)  
1 27954U 03044A   26061.70099444  .00000116  00000+0  00000+0 0  9996
2 27954   1.1424  85.3303 0002172 258.1948 279.2877  1.00271805 45502
INTELSAT 10-02          
1 28358U 04022A   26061.37401278 -.00000029  00000+0  00000+0 0  9991
2 28358   0.0154 120.8747 0001061 247.9501 284.9533  1.00270700 79482
DIRECTV 8               
1 28659U 05019A   26061.70714780 -.00000015  00000+0  00000+0 0  9999
2 28659   0.0163 127.6302 0003256 224.4102 303.9437  1.00272080 76006
GALAXY 28 (G-28)        
1 28702U 05022A   26061.39714784 -.00000215  00000+0  00000+0 0  9993
2 28702   3.0245  80.2799 0003380 282.0971 273.6715  1.00283990 50900
GALAXY 16 (G-16)        
1 29236U 06023A   26061.56844590 -.00000144  00000+0  00000+0 0  9997
2 29236   0.0496 240.8313 0002397 114.4771 270.6562  1.00271515 71907
DIRECTV 9S              
1 29494U 06043A   26061.63933959 -.00000129  00000+0  00000+0 0  9994
2 29494   2.1458  82.2249 0003133 264.1877 302.9464  1.00271297 50318
GALAXY 17 (G-17)        
1 31307U 07016B   26061.57130593 -.00000222  00000+0  00000+0 0  9991
2 31307   2.7019  81.2646 0003348 258.4707 301.2749  1.00272294 68730
DIRECTV 10              
1 31862U 07032A   26061.81711354  .00000002  00000+0  00000+0 0  9997
2 31862   0.1277 101.2996 0006545 271.5102 142.6541  0.98336010 44523
INTELSAT 11 (IS-11)     
1 32253U 07044B   26061.70576115  .00000059  00000+0  00000+0 0  9999
2 32253   3.2881  79.9817 0005336 204.2653   4.2864  0.99048152 67396
HORIZONS-2              
1 32388U 07063B   26061.57347259 -.00000269  00000+0  00000+0 0  9993
2 32388   2.3273  81.9774 0002858 251.5697 319.4516  1.00272072 66740
