[{"OBJECT_NAME":"INTELSAT 10 (IS-10)","OBJECT_ID":"2001-019A","EPOCH":"2026-03-02T19:52:38.716032","MEAN_MOTION":0.99042112,"ECCENTRICITY":0.0006023,"INCLINATION":8.8221,"RA_OF_ASC_NODE":60.3368,"ARG_OF_PERICENTER":264.4557,"MEAN_ANOMALY":284.1492,"EPHEMERIS_TYPE":0,"CLASSIFICATION_TYPE":"U","NORAD_CAT_ID":26766,"ELEMENT_SET_NO":999,"REV_AT_EPOCH":4452,"BSTAR":0,"MEAN_MOTION_DOT":-2.97e-6,"MEAN_MOTION_DDOT":0},{"OBJECT_NAME":"INTELSAT 902 (IS-902)","OBJECT_ID":"2001-039A","EPOCH":"2026-03-02T08:44:36.042720","MEAN_MOTION":1.00270997,"ECCENTRICITY":0.00046178,"INCLINATION":5.8472,"RA_OF_ASC_NODE":73.0874,"ARG_OF_PERICENTER":272.3578,"MEAN_ANOMALY":255.7488,"EPHEMERIS_TYPE":0,"CLASSIFICATION_TYPE":"U","NORAD_CAT_ID":26900,"ELEMENT_SET_NO":999,"REV_AT_EPOCH":8962,"BSTAR":0,"MEAN_MOTION_DOT":-2.98e-6,"MEAN_MOTION_DDOT":0},{"OBJECT_NAME":"INTELSAT 904 (IS-904)","OBJECT_ID":"2002-007A","EPOCH":"2026-03-02T11:02:38.783040","MEAN_MOTION":1.00270508,"ECCENTRICITY":0.0006068,"INCLINATION":6.6541,"RA_OF_ASC_NODE":70.4635,"ARG_OF_PERICENTER":306.2018,"MEAN_ANOMALY":277.721,"EPHEMERIS_TYPE":0,"CLASSIFICATION_TYPE":"U","NORAD_CAT_ID":27380,"ELEMENT_SET_NO":999,"REV_AT_EPOCH":5069,"BSTAR":0,"MEAN_MOTION_DOT":-2.4e-6,"MEAN_MOTION_DDOT":0},{"OBJECT_NAME":"DIRECTV 5 (TEMPO 1)","OBJECT_ID":"2002-023A","EPOCH":"2026-03-02T15:18:09.180000","MEAN_MOTION":1.00271942,"ECCENTRICITY":0.0003576,"INCLINATION":4.6059,"RA_OF_ASC_NODE":76.6427,"ARG_OF_PERICENTER":270.0845,"MEAN_ANOMALY":293.1139,"EPHEMERIS_TYPE":0,"CLASSIFICATION_TYPE":"U","NORAD_CAT_ID":27426,"ELEMENT_SET_NO":999,"REV_AT_EPOCH":8705,"BSTAR":0,"MEAN_MOTION_DOT":-7.2e-7,"MEAN_MOTION_DDOT":0},{"OBJECT_NAME":"INTELSAT 905 (IS-905)","OBJECT_ID":"2002-027A","EPOCH":"2026-03-02T16:53:03.073920","MEAN_MOTION":1.00272695,"ECCENTRICITY":0.0003146,"INCLINATION":6.4864,"RA_OF_ASC_NODE":71.0813,"ARG_OF_PERICENTER":272.723,"MEAN_ANOMALY":292.7304,"EPHEMERIS_TYPE":0,"CLASSIFICATION_TYPE":"U","NORAD_CAT_ID":27438,"ELEMENT_SET_NO":999,"REV_AT_EPOCH":5029,"BSTAR":0,"MEAN_MOTION_DOT":8.0e-7,"MEAN_MOTION_DDOT":0},{"OBJECT_NAME":"GALAXY 3C (G-3C)","OBJECT_ID":"2002-030A","EPOCH":"2026-03-02T15:22:31.260576","MEAN_MOTION":1.00271516,"ECCENTRICITY":9.18e-5,"INCLINATION":3.46,"RA_OF_ASC_NODE":79.484,"ARG_OF_PERICENTER":32.4705,"MEAN_ANOMALY":184.2481,"EPHEMERIS_TYPE":0,"CLASSIFICATION_TYPE":"U","NORAD_CAT_ID":27445,"ELEMENT_SET_NO":999,"REV_AT_EPOCH":4542,"BSTAR":0,"MEAN_MOTION_DOT":-1.68e-6,"MEAN_MOTION_DDOT":0},{"OBJECT_NAME":"INTELSAT 906 (IS-906)","OBJECT_ID":"2002-041A","EPOCH":"2026-03-02T16:28:28.899840","MEAN_MOTION":1.00272582,"ECCENTRICITY":0.0003261,"INCLINATION":5.5318,"RA_OF_ASC_NODE":74.234,"ARG_OF_PERICENTER":255.1945,"MEAN_ANOMALY":142.2999,"EPHEMERIS_TYPE":0,"CLASSIFICATION_TYPE":"U","NORAD_CAT_ID":27513,"ELEMENT_SET_NO":999,"REV_AT_EPOCH":8596,"BSTAR":0,"MEAN_MOTION_DOT":-1.0e-8,"MEAN_MOTION_DDOT":0},{"OBJECT_NAME":"GALAXY 13 (HORIZONS-1)","OBJECT_ID":"2003-044A","EPOCH":"2026-03-02T16:49:25.919616","MEAN_MOTION":1.00271805,"ECCENTRICITY":0.0002172,"INCLINATION":1.1424,"RA_OF_ASC_NODE":85.3303,"ARG_OF_PERICENTER":258.1948,"MEAN_ANOMALY":279.2877,"EPHEMERIS_TYPE":0,"CLASSIFICATION_TYPE":"U","NORAD_CAT_ID":27954,"ELEMENT_SET_NO":999,"REV_AT_EPOCH":4550,"BSTAR":0,"MEAN_MOTION_DOT":1.16e-6,"MEAN_MOTION_DDOT":0},{"OBJECT_NAME":"INTELSAT 10-02","OBJECT_ID":"2004-022A","EPOCH":"2026-03-02T08:58:34.704192","MEAN_MOTION":1.002707,"ECCENTRICITY":0.00010616,"INCLINATION":0.0154,"RA_OF_ASC_NODE":120.8747,"ARG_OF_PERICENTER":247.9501,"MEAN_ANOMALY":284.9533,"EPHEMERIS_TYPE":0,"CLASSIFICATION_TYPE":"U","NORAD_CAT_ID":28358,"ELEMENT_SET_NO":999,"REV_AT_EPOCH":7948,"BSTAR":0,"MEAN_MOTION_DOT":-2.9e-7,"MEAN_MOTION_DDOT":0},{"OBJECT_NAME":"DIRECTV 8","OBJECT_ID":"2005-019A","EPOCH":"2026-03-02T16:58:17.569920","MEAN_MOTION":1.0027208,"ECCENTRICITY":0.0003256,"INCLINATION":0.0163,"RA_OF_ASC_NODE":127.6302,"ARG_OF_PERICENTER":224.4102,"MEAN_ANOMALY":303.9437,"EPHEMERIS_TYPE":0,"CLASSIFICATION_TYPE":"U","NORAD_CAT_ID":28659,"ELEMENT_SET_NO":999,"REV_AT_EPOCH":7600,"BSTAR":0,"MEAN_MOTION_DOT":-1.5e-7,"MEAN_MOTION_DDOT":0},{"OBJECT_NAME":"GALAXY 28 (G-28)","OBJECT_ID":"2005-022A","EPOCH":"2026-03-02T09:31:53.573376","MEAN_MOTION":1.0028399,"ECCENTRICITY":0.00033801,"INCLINATION":3.0245,"RA_OF_ASC_NODE":80.2799,"ARG_OF_PERICENTER":282.0971,"MEAN_ANOMALY":273.6715,"EPHEMERIS_TYPE":0,"CLASSIFICATION_TYPE":"U","NORAD_CAT_ID":28702,"ELEMENT_SET_NO":999,"REV_AT_EPOCH":5090,"BSTAR":0,"MEAN_MOTION_DOT":-2.15e-6,"MEAN_MOTION_DDOT":0},{"OBJECT_NAME":"GALAXY 16 (G-16)","OBJECT_ID":"2006-023A","EPOCH":"2026-03-02T13:38:33.725760","MEAN_MOTION":1.00271515,"ECCENTRICITY":0.0002397,"INCLINATION":0.0496,"RA_OF_ASC_NODE":240.8313,"ARG_OF_PERICENTER":114.4771,"MEAN_ANOMALY":270.6562,"EPHEMERIS_TYPE":0,"CLASSIFICATION_TYPE":"U","NORAD_CAT_ID":29236,"ELEMENT_SET_NO":999,"REV_AT_EPOCH":7190,"BSTAR":0,"MEAN_MOTION_DOT":-1.44e-6,"MEAN_MOTION_DDOT":0},{"OBJECT_NAME":"DIRECTV 9S","OBJECT_ID":"2006-043A","EPOCH":"2026-03-02T15:20:38.940576","MEAN_MOTION":1.00271297,"ECCENTRICITY":0.0003133,"INCLINATION":2.1458,"RA_OF_ASC_NODE":82.2249,"ARG_OF_PERICENTER":264.1877,"MEAN_ANOMALY":302.9464,"EPHEMERIS_TYPE":0,"CLASSIFICATION_TYPE":"U","NORAD_CAT_ID":29494,"ELEMENT_SET_NO":999,"REV_AT_EPOCH":5031,"BSTAR":0,"MEAN_MOTION_DOT":-1.29e-6,"MEAN_MOTION_DDOT":0},{"OBJECT_NAME":"GALAXY 17 (G-17)","OBJECT_ID":"2007-016B","EPOCH":"2026-03-02T13:42:40.832352","MEAN_MOTION":1.00272294,"ECCENTRICITY":0.0003348,"INCLINATION":2.7019,"RA_OF_ASC_NODE":81.2646,"ARG_OF_PERICENTER":258.4707,"MEAN_ANOMALY":301.2749,"EPHEMERIS_TYPE":0,"CLASSIFICATION_TYPE":"U","NORAD_CAT_ID":31307,"ELEMENT_SET_NO":999,"REV_AT_EPOCH":6873,"BSTAR":0,"MEAN_MOTION_DOT":-2.22e-6,"MEAN_MOTION_DDOT":0},{"OBJECT_NAME":"DIRECTV 10","OBJECT_ID":"2007-032A","EPOCH":"2026-03-02T19:36:38.609856","MEAN_MOTION":0.9833601,"ECCENTRICITY":0.0006545,"INCLINATION":0.1277,"RA_OF_ASC_NODE":101.2996,"ARG_OF_PERICENTER":271.5102,"MEAN_ANOMALY":142.6541,"EPHEMERIS_TYPE":0,"CLASSIFICATION_TYPE":"U","NORAD_CAT_ID":31862,"ELEMENT_SET_NO":999,"REV_AT_EPOCH":4452,"BSTAR":0,"MEAN_MOTION_DOT":2.0e-8,"MEAN_MOTION_DDOT":0},{"OBJECT_NAME":"INTELSAT 11 (IS-11)","OBJECT_ID":"2007-044B","EPOCH":"2026-03-02T16:56:17.763360","MEAN_MOTION":0.99048152,"ECCENTRICITY":0.0005336,"INCLINATION":3.2881,"RA_OF_ASC_NODE":79.9817,"ARG_OF_PERICENTER":204.2653,"MEAN_ANOMALY":4.2864,"EPHEMERIS_TYPE":0,"CLASSIFICATION_TYPE":"U","NORAD_CAT_ID":32253,"ELEMENT_SET_NO":999,"REV_AT_EPOCH":6739,"BSTAR":0,"MEAN_MOTION_DOT":5.9e-7,"MEAN_MOTION_DDOT":0},{"OBJECT_NAME":"HORIZONS-2","OBJECT_ID":"2007-063B","EPOCH":"2026-03-02T13:45:48.031776","MEAN_MOTION":1.00272072,"ECCENTRICITY":0.0002858,"INCLINATION":2.3273,"RA_OF_ASC_NODE":81.9774,"ARG_OF_PERICENTER":251.5697,"MEAN_ANOMALY":319.4516,"EPHEMERIS_TYPE":0,"CLASSIFICATION_TYPE":"U","NORAD_CAT_ID":32388,"ELEMENT_SET_NO":999,"REV_AT_EPOCH":6674,"BSTAR":0,"MEAN_MOTION_DOT":-2.69e-6,"MEAN_MOTION_DDOT":0}]
